NORAD_CAT_ID,OBJECT_NAME,OBJECT_TYPE,EPOCH,MEAN_MOTION,ECCENTRICITY,INCLINATION,RA_OF_ASC_NODE,ARG_OF_PERICENTER,MEAN_ANOMALY,BSTAR,MEAN_MOTION_DOT,MEAN_MOTION_DDOT,TLE_LINE0,TLE_LINE1,TLE_LINE2,SEMIMAJOR_AXIS,PERIOD,APOGEE,PERIGEE,DECAYED
53895.0,STARLINK-5032,PAYLOAD,2024-05-08 04:38:45,15.08834795,0.0001399,53.2174,94.0087,89.7491,270.3662,-0.00014881,-2.655e-05,0.0,0 STARLINK-5032,1 53895U 22119K   24129.19357850 -.00002655  00000-0 -14881-3 0  9996,2 53895  53.2174  94.0087 0001399  89.7491 270.3662 15.08834795 90041,6917.896,95.438,540.729,538.793,0.0
53895.0,STARLINK-5032,PAYLOAD,2024-05-08 14:11:04,15.08833227,0.000142,53.2178,92.2246,89.9334,270.1821,-0.00012887,-2.338e-05,0.0,0 STARLINK-5032,1 53895U 22119K   24129.59102053 -.00002338  00000-0 -12887-3 0  9995,2 53895  53.2178  92.2246 0001420  89.9334 270.1821 15.08833227 90522,6917.901,95.438,540.748,538.784,0.0
53895.0,STARLINK-5032,PAYLOAD,2024-05-08 22:07:59,15.08833194,0.0001236,53.2164,90.7361,83.4559,276.6573,-6.11e-06,-3.85e-06,0.0,0 STARLINK-5032,1 53895U 22119K   24129.92221841 -.00000385  00000-0 -61100-5 0  9993,2 53895  53.2164  90.7361 0001236  83.4559 276.6573 15.08833194 90574,6917.901,95.438,540.621,538.911,0.0
53895.0,STARLINK-5032,PAYLOAD,2024-05-09 04:29:31,15.08846275,0.0001353,53.2171,89.5497,92.64,267.4747,8.7515e-05,1.105e-05,0.0,0 STARLINK-5032,1 53895U 22119K   24130.18716995  .00001105  00000-0  87515-4 0  9998,2 53895  53.2171  89.5497 0001353  92.6400 267.4747 15.08846275 90198,6917.861,95.437,540.662,538.79,0.0
53895.0,STARLINK-5032,PAYLOAD,2024-05-09 06:04:54,15.08844264,0.0001459,53.2173,89.2522,100.6748,259.4409,0.00015036,2.106e-05,0.0,0 STARLINK-5032,1 53895U 22119K   24130.25340968  .00002106  00000-0  15036-3 0  9999,2 53895  53.2173  89.2522 0001459 100.6748 259.4409 15.08844264 90628,6917.867,95.437,540.742,538.723,0.0
53895.0,STARLINK-5032,PAYLOAD,2024-05-09 14:01:50,15.08842859,0.0001362,53.2173,87.7651,89.8736,270.2412,5.0187e-05,5.11e-06,0.0,0 STARLINK-5032,1 53895U 22119K   24130.58461389  .00000511  00000-0  50187-4 0  9991,2 53895  53.2173  87.7651 0001362  89.8736 270.2412 15.08842859 90254,6917.872,95.437,540.679,538.794,0.0
53895.0,STARLINK-5032,PAYLOAD,2024-05-10 04:20:20,15.0882725,0.0001591,53.2171,85.0891,83.3512,276.7662,0.00090629,0.0001416,0.0,0 STARLINK-5032,1 53895U 22119K   24131.18078928  .00014160  00000-0  90629-3 0  9990,2 53895  53.2171  85.0891 0001591  83.3512 276.7662 15.08827250 90340,6917.919,95.438,540.885,538.684,0.0
53895.0,STARLINK-5032,PAYLOAD,2024-05-10 07:31:05,15.08851801,0.0001492,53.2175,84.495,91.9906,268.1257,0.00039459,5.999e-05,0.0,0 STARLINK-5032,1 53895U 22119K   24131.31325352  .00005999  00000-0  39459-3 0  9995,2 53895  53.2175  84.4950 0001492  91.9906 268.1257 15.08851801 90361,6917.844,95.437,540.741,538.677,0.0
53895.0,STARLINK-5032,PAYLOAD,2024-05-10 13:52:37,15.0884691,0.0001643,53.2166,83.3039,81.2739,278.8439,0.00029335,4.385e-05,0.0,0 STARLINK-5032,1 53895U 22119K   24131.57821548  .00004385  00000-0  29335-3 0  9991,2 53895  53.2166  83.3039 0001643  81.2739 278.8439 15.08846910 90827,6917.859,95.437,540.861,538.588,0.0
53895.0,STARLINK-5032,PAYLOAD,2024-05-11 04:11:04,15.08877973,0.0001501,53.2176,80.6294,103.9418,256.1741,0.0006817,0.00010589,0.0,0 STARLINK-5032,1 53895U 22119K   24132.17435962  .00010589  00000-0  68170-3 0  9992,2 53895  53.2176  80.6294 0001501 103.9418 256.1741 15.08877973 90491,6917.764,95.435,540.668,538.591,0.0
53895.0,STARLINK-5032,PAYLOAD,2024-05-11 20:04:55,15.08847462,0.0001068,53.2185,77.6543,115.8796,244.2306,-0.00041999,-6.967e-05,0.0,0 STARLINK-5032,1 53895U 22119K   24132.83675322 -.00006967  00000-0 -41999-3 0  9998,2 53895  53.2185  77.6543 0001068 115.8796 244.2306 15.08847462 90599,6917.858,95.437,540.461,538.984,0.0
53895.0,STARLINK-5032,PAYLOAD,2024-05-12 02:26:29,15.08811708,6.58e-05,53.2191,76.4645,101.7069,258.3997,-0.0011607,-0.00018698,0.0,0 STARLINK-5032,1 53895U 22119K   24133.10172657 -.00018698  00000-0 -11607-2 0  9998,2 53895  53.2191  76.4645 0000658 101.7069 258.3997 15.08811708 90638,6917.967,95.439,540.287,539.377,0.0
53895.0,STARLINK-5032,PAYLOAD,2024-05-12 13:34:11,15.08800458,0.0001795,53.2171,74.3848,94.4952,265.6245,-0.00055719,-9.135e-05,0.0,0 STARLINK-5032,1 53895U 22119K   24133.56541661 -.00009135  00000-0 -55719-3 0  9992,2 53895  53.2171  74.3848 0001795  94.4952 265.6245 15.08800458 91122,6918.001,95.44,541.108,538.624,0.0
53895.0,STARLINK-5032,PAYLOAD,2024-05-13 05:28:05,15.08810492,0.0001855,53.2173,71.4111,92.3955,267.725,0.00092768,0.00014495,0.0,0 STARLINK-5032,1 53895U 22119K   24134.22783589  .00014495  00000-0  92768-3 0  9991,2 53895  53.2173  71.4111 0001855  92.3955 267.7250 15.08810492 90804,6917.971,95.439,541.119,538.552,0.0
53895.0,STARLINK-5032,PAYLOAD,2024-05-13 13:25:00,15.08827032,0.0001876,53.2173,69.9246,92.6613,267.4593,0.0011251,0.00017657,0.0,0 STARLINK-5032,1 53895U 22119K   24134.55903901  .00017657  00000-0  11251-2 0  9999,2 53895  53.2173  69.9246 0001876  92.6613 267.4593 15.08827032 91279,6917.92,95.438,541.083,538.487,0.0
53895.0,STARLINK-5032,PAYLOAD,2024-05-14 02:08:05,15.08852253,0.0001851,53.2172,67.5455,93.8639,266.2565,0.0013118,0.00020658,0.0,0 STARLINK-5032,1 53895U 22119K   24135.08895774  .00020658  00000-0  13118-2 0  9995,2 53895  53.2172  67.5455 0001851  93.8639 266.2565 15.08852253 90939,6917.843,95.437,540.988,538.427,0.0
53895.0,STARLINK-5032,PAYLOAD,2024-05-14 05:18:52,15.08857113,0.0001846,53.2173,66.9512,93.0002,267.1202,0.0011994,0.00018861,0.0,0 STARLINK-5032,1 53895U 22119K   24135.22143604  .00018861  00000-0  11994-2 0  9992,2 53895  53.2173  66.9512 0001846  93.0002 267.1202 15.08857113 91374,6917.828,95.436,540.97,538.416,0.0
53895.0,STARLINK-5032,PAYLOAD,2024-05-14 22:48:05,15.08868718,0.0001836,53.2171,63.6793,96.4151,263.705,0.0010076,0.00015797,0.0,0 STARLINK-5032,1 53895U 22119K   24135.95006737  .00015797  00000-0  10076-2 0  9992,2 53895  53.2171  63.6793 0001836  96.4151 263.7050 15.08868718 91486,6917.793,95.436,540.928,538.388,0.0
53895.0,STARLINK-5032,PAYLOAD,2024-05-15 01:58:51,15.08885568,0.000181,53.2181,63.0839,92.4599,267.66,0.0014479,0.00022859,0.0,0 STARLINK-5032,1 53895U 22119K   24136.08254309  .00022859  00000-0  14479-2 0  9995,2 53895  53.2181  63.0839 0001810  92.4599 267.6600 15.08885568 91088,6917.741,95.435,540.858,538.354,0.0
53895.0,STARLINK-5032,PAYLOAD,2024-05-15 19:28:05,15.0887798,0.000175,53.2176,59.8115,91.4019,268.7174,0.00069749,0.00010841,0.0,0 STARLINK-5032,1 53895U 22119K   24136.81117036  .00010841  00000-0  69749-3 0  9990,2 53895  53.2176  59.8115 0001750  91.4019 268.7174 15.08877980 91190,6917.764,95.435,540.84,538.419,0.0
53895.0,STARLINK-5032,PAYLOAD,2024-05-15 22:38:51,15.08882824,0.0001878,53.2176,59.2176,89.3055,270.8153,0.00077543,0.00012089,0.0,0 STARLINK-5032,1 53895U 22119K   24136.94364662  .00012089  00000-0  77543-3 0  9990,2 53895  53.2176  59.2176 0001878  89.3055 270.8153 15.08882824 91631,6917.749,95.435,540.914,538.315,0.0
53895.0,STARLINK-5032,PAYLOAD,2024-05-16 01:49:36,15.08893625,0.0001917,53.2186,58.6271,96.7663,263.3548,0.0010994,0.00017278,0.0,0 STARLINK-5032,1 53895U 22119K   24137.07612150  .00017278  00000-0  10994-2 0  9994,2 53895  53.2186  58.6271 0001917  96.7663 263.3548 15.08893625 91234,6917.716,95.434,540.908,538.255,0.0
53895.0,STARLINK-5032,PAYLOAD,2024-05-17 03:15:47,15.08795078,0.0001295,53.2177,53.8654,76.9056,283.208,-0.0013323,-0.00021403,0.0,0 STARLINK-5032,1 53895U 22119K   24138.13596513 -.00021403  00000-0 -13323-2 0  9992,2 53895  53.2177  53.8654 0001295  76.9056 283.2080 15.08795078 91393,6918.018,95.44,540.779,538.987,0.0
53895.0,STARLINK-5032,PAYLOAD,2024-05-17 11:12:44,15.08802783,0.000105,53.2178,52.3804,95.9655,264.1456,0.00031269,4.687e-05,0.0,0 STARLINK-5032,1 53895U 22119K   24138.46717725  .00004687  00000-0  31269-3 0  9991,2 53895  53.2178  52.3804 0001050  95.9655 264.1456 15.08802783 91443,6917.994,95.44,540.586,539.133,0.0
53895.0,STARLINK-5032,PAYLOAD,2024-05-17 22:20:26,15.08822363,6.55e-05,53.2182,50.2989,95.1866,264.9201,0.0011568,0.00018162,0.0,0 STARLINK-5032,1 53895U 22119K   24138.93086565  .00018162  00000-0  11568-2 0  9996,2 53895  53.2182  50.2989 0000655  95.1866 264.9201 15.08822363 91931,6917.934,95.439,540.252,539.346,0.0
53895.0,STARLINK-5032,PAYLOAD,2024-05-18 03:06:36,15.08861058,0.0001425,53.2168,49.4069,93.8478,266.2677,0.0027689,0.0004408,0.0,0 STARLINK-5032,1 53895U 22119K   24139.12958447  .00044080  00000-0  27689-2 0  9994,2 53895  53.2168  49.4069 0001425  93.8478 266.2677 15.08861058 91547,6917.816,95.436,540.667,538.695,0.0
53895.0,STARLINK-5032,PAYLOAD,2024-05-18 11:03:31,15.08867628,0.0001516,53.2178,47.9185,78.0892,282.027,0.0019686,0.00031205,0.0,0 STARLINK-5032,1 53895U 22119K   24139.46078083  .00031205  00000-0  19686-2 0  9993,2 53895  53.2178  47.9185 0001516  78.0892 282.0270 15.08867628 91595,6917.796,95.436,540.71,538.612,0.0
53895.0,STARLINK-5032,PAYLOAD,2024-05-18 22:11:13,15.0887448,0.0001666,53.2163,45.8386,82.2416,277.8765,0.0018392,0.00029132,0.0,0 STARLINK-5032,1 53895U 22119K   24139.92445616  .00029132  00000-0  18392-2 0  9993,2 53895  53.2163  45.8386 0001666  82.2416 277.8765 15.08874480 92084,6917.775,95.435,540.793,538.487,0.0
53895.0,STARLINK-5032,PAYLOAD,2024-05-19 01:21:58,15.0888293,0.0001282,53.2169,45.2438,83.4322,276.6816,0.0024127,0.00038365,0.0,0 STARLINK-5032,1 53895U 22119K   24140.05693201  .00038365  00000-0  24127-2 0  9995,2 53895  53.2169  45.2438 0001282  83.4322 276.6816 15.08882930 91683,6917.749,95.435,540.501,538.727,0.0
53895.0,STARLINK-5032,PAYLOAD,2024-05-19 17:15:50,15.08861608,0.0001424,53.217,42.2702,117.7718,242.3419,0.0030058,0.00047903,0.0,0 STARLINK-5032,1 53895U 22119K   24140.71933345  .00047903  00000-0  30058-2 0  9992,2 53895  53.2170  42.2702 0001424 117.7718 242.3419 15.08861608 91783,6917.814,95.436,540.664,538.694,0.0
